"OBJECTID,N,10,0","X,N,19,8","Y,N,19,8","STORE_ID,N,10,0","OFFICIAL_S,C,31","UNOFFICIAL,C,24","STORE_ADDR,C,24","ZIP_CODE,C,8","STORE_LEVE,C,50"
137,2705642.33125398,262746.34555113,120069,"Santana Deli & Grocery","Santana Deli & Grocery","4948 C St","19120","Healthy Corner Store"
138,2695085.97214768,223614.52430893,148085,"Seven & Porter Mini Market","Seven & Porter Mini Mark","700 W Porter St","19148","Healthy Corner Store"
139,2707453.13029241,252125.94782084,134118,"Shachary Grocery",,"1900 E Allegheny Ave","19134","Healthy Corner Store"
140,2675043.17730223,224519.84570458,142068,"Shema's Convenience Store","Shema's Convenience Stor","6523 Elmwood Ave","19142","Healthy Corner Store"
141,2673502.83356286,225344.51486745,142103,"Sita T African Grocery Store","Sita T African Grocery S","6621 Woodland Ave","19142","Healthy Corner Store"
142,2692529.52654184,223485.78627027,148089,"Sophia Grocery & Deli Llc","Sophia's Grocery & Deli","2600 S Iseminger St","19148","Healthy Corner Store"
143,2695831.62738473,229002.89410889,147045,"South Philly Cold Cuts",,"701 Wharton St","19147","Healthy Corner Store"
144,2671538.27693485,237095.13307064,139066,"Spruce Mini Market","Spruce Super Market","284 S 60th St","19139","Healthy Corner Store"
145,2671538.27693485,237095.13307064,143096,"Spruce St Market",,"284 S 60th St","19143","Healthy Corner Store"
146,2684959.22603941,229370.07643423,146047,"Tasker Food Market","Tasker Food Market","1548 S Corlies St","19146","Healthy Corner Store"
147,2695440.60831195,276596.53795128,138049,"Tasty Kake Outlet","Tasty Kake Outlet","7155 Ogontz Ave","19138","Healthy Corner Store"
148,2689935.14566702,226769.26364233,145060,"Tc Grocery Llc #1","TC Grocery","1939 S 19Th St","19145","Healthy Corner Store"
149,2704932.98482009,253259.45330717,134125,"Thelma Soza T/A J&V Deli",,"500 E Willard St","19134","Healthy Corner Store"
150,2697530.71081568,223276.67370464,148092,"Tonys Mkt Antonio Tecce",,"153 W Porter St","19148","Healthy Corner Store"
151,2693278.67338041,252248.83731983,132074,"Torres Grocery",,"1915 W Somerset St","19132","Healthy Corner Store"
152,2697554.43207661,251511.96066834,133077,"Torres Grocery","T & R Grocery","2756 Germantown Ave","19133","Healthy Corner Store"
153,2687333.70245607,251338.86137859,132076,"Torres Mini Market","Torres Mini Mart","2500 N 32nd St","19132","Healthy Corner Store"
154,2678319.24177096,236998.57784066,139070,"Torres Super Market","Torres Supermarket","4801 Walnut St","19139","Healthy Corner Store"
155,2688815.91154565,242526.31566853,130015,"Trust Market",,"2600 Brown St","19130","Healthy Corner Store"
156,2672294.92216112,225299.40093636,142062,"Upland Mini Market",,"2024 S 68th St","19142","Healthy Corner Store"
157,2686145.18561920,230335.04391723,146049,"Urena Food Mart","Wharton Food Market","1300 S 28Th St","19146","Healthy Corner Store"
158,2713277.43190816,266552.58386187,124090,"Valentina Grocery",,"898 Anchor St","19124","Healthy Corner Store"
159,2679540.47001795,234491.25899697,143098,"Valentino African Food Store","Valentino African Food S","4520 Baltimore Ave","19143","Healthy Corner Store"
160,2714008.32617392,259481.72721017,124091,"Valerio Food Market",,"1500 Sellers St","19124","Healthy Corner Store"
161,2674310.89918520,244515.38532423,131041,"Valerio's Food Market","Valerio's Food Market","5455 Lansdowne Ave","19131","Healthy Corner Store"
162,2700908.98632908,251752.46911457,134112,"Vargas Mini Market","Vargas Mini Mart","241 E Cambria St","19134","Healthy Corner Store"
163,2694591.47199859,223202.52783666,148093,"Ventura Deli And Mini Market","Ventura Deli and Mini Ma","2601 S 8th St","19148","Healthy Corner Store"
164,2695216.91314943,227717.91466874,148095,"Vics Coffee Shop",,"1600 S 8Th St","19148","Healthy Corner Store"
165,2713314.47618789,259266.80552743,124092,"Yandel Food Market",,"1362 Unity St","19124","Healthy Corner Store"
166,2673693.99472343,236337.23536784,139093,"Yanley Food Market","Yanidy Food Market","5601 Pine St","19139","Healthy Corner Store"
167,2690698.89797207,245270.12945915,121065,"Yasmin Food Market","Yasmin Food Market","2236 W Jefferson St","19121","Healthy Corner Store"
168,2689136.20896670,229344.43396275,146018,"Young's Harvest Market","Harvest Supermarket","1426 Point Breeze Ave","19146","Healthy Corner Store"
169,2697798.62095505,242167.40984885,123001,"1022 Marshall Enterprises, Inc","1022 Marshall Enterprise","1022 N Marshall St","19123","Healthy Corner Store"
170,2691365.18004561,226439.37550088,145002,"16th Street Food Market","16th St Food Market","1551 Mckean St","19145","Healthy Corner Store"
171,2689356.35789228,228989.52415660,146001,"21st Food Market & Deli","21st Food Market","2050 Dickinson St","19146","Healthy Corner Store"
172,2690451.33221281,254326.40232104,132055,"26th and Clearfield Mini Mart","26th and Clearfield Mini","3101 N 26th St","19132","Healthy Corner Store"
173,2704364.33940842,250523.06170055,134001,"2764 Kensington Inc","2764 Kensington Inc","2764-72 Kensington Ave","19134","Healthy Corner Store"
174,2685644.02459537,226767.46079274,145025,"28 & Snyder Supermarket",,"2800 Snyder Ave","19145","Healthy Corner Store"
175,2675129.14367820,236339.06617635,143028,"3 Sisters #2","Delancey Food Market","5356 Delancey Street","19143","Healthy Corner Store"
176,2676963.26606607,239462.36751344,139003,"51 Race Food Market Inc","51 Race Food Market","5101 Race St","19139","Healthy Corner Store"
177,2678141.46434920,231360.95068781,143003,"52nd Street Food Market","52nd St Market","1401 S 52nd St","19143","Healthy Corner Store"
178,2672597.30682995,236672.70048507,143004,"58th St. & Delancey Food Market","58th & Delancey Food Mar","5800 Delancey St","19143","Healthy Corner Store"
179,2690228.43296617,230478.21762624,146006,"A & H Food Market","A & H Food Market","1946 Federal St","19146","Healthy Corner Store"
180,2692439.92860543,223977.93882432,148004,"A&E Grocery","A & E Grocery","1300 W Porter St","19148","Healthy Corner Store"
181,2720712.83462148,274359.91420340,152014,"Acai Berry Café","Acai Berry Café","7534 Castor Ave","19152","Healthy Corner Store"
182,2694429.16723510,250728.03900118,132006,"Agramonte Grocery Store","Agramonte Grocery Store","2568 N Bancroft St","19132","Healthy Corner Store"
183,2705701.88323251,261387.27421825,120032,"Al Aqsa Halal","Al Aqsa Halal","419 East Wyoming Ave","19120","Healthy Corner Store"
184,2675977.45114628,225423.96417448,142004,"Aladdin Food Market","Aladdin Food Market","6247 Elmwood Ave","19142","Healthy Corner Store"
185,2688218.19691815,251203.56036987,132007,"Alejandro Grocery Store","Alejandro Grocery","3000 W Cumberland St","19132","Healthy Corner Store"
186,2706593.81713185,253119.34518844,134004,"Almanzar Mini Market","Almanzar Mini Market","800 E Willard St","19134","Healthy Corner Store"
187,2709912.13585682,269771.32477656,120014,"Almonte Mini Market","Almonte Mini Market","546 Van Kirk St","19120","Healthy Corner Store"
188,2679300.78644285,234454.65054006,143009,"Amin Gas & Mini Mart","Amin Gas & Mini Market","4548 Baltimore Ave","19143","Healthy Corner Store"
189,2702025.64601886,253908.74603105,140014,"Angel Deli Grocery","Caribe Grocery","3300 Mutter St","19140","Healthy Corner Store"
190,2671510.85974967,236890.58081960,143011,"Angelo's Food Market","Twins Mini Market","309 S 60th St","19143","Healthy Corner Store"
191,2716936.00230499,256397.35195198,137001,"Angel's Deli","Angel's Deli","2350 Orthodox St","19137","Healthy Corner Store"
192,2702585.34501706,244163.69477416,125002,"Annes Place","Anne's Place","460 Belgrade St","19125","Healthy Corner Store"
193,2688504.38000448,230425.59090881,146012,"Arheny Food Market","Arheny Food Market","1240 S 23rd St","19146","Healthy Corner Store"
194,2710935.94335833,253222.79685943,134009,"Ariel Grocery Inc","Ariel Grocery","2090 E Pacific St","19134","Healthy Corner Store"
195,2698124.50196563,250987.89107088,133003,"AVP Grocery Store","Santos Grocery","811 W Lehigh Ave","19133","Healthy Corner Store"
196,2677896.55141113,231870.39082334,143040,"Azcona Supermarket","Good Neighbor Market","5131 Chester Ave","19143","Healthy Corner Store"
197,2693207.55401151,250531.23741582,132010,"Baez Grocery","19th St. Grocery","2500 N 19Th St","19132","Healthy Corner Store"
198,2689088.58780523,225113.32665524,145049,"Barbaro, Inc","Rocco's Market","2355 S Woodstock St","19145","Healthy Corner Store"
199,2693610.00995183,222609.65402212,148010,"Bettys Grocery","Betty's Grocery","2747 S 10Th St","19148","Healthy Corner Store"
200,2690298.58682210,253229.35853688,132062,"Breton Grocery","Breton Grocery","2900 N 26Th St","19132","Healthy Corner Store"
201,2695699.97161988,257619.01464190,140012,"Brother's Grocery","Lopez Grocery","1540 W Butler St","19140","Healthy Corner Store"
202,2676865.93112108,225795.77500228,142009,"Buist Food Market","Buist Food Market","2561 S 61St St","19142","Healthy Corner Store"
203,2711337.95206410,271861.48898771,111004,"C & R Deli Grocery","C R Grocery","6351 Rising Sun Ave","19111","Healthy Corner Store"
204,2706194.48760509,249793.57994996,134018,"Cambria Mini Market","Cambria Mini Market","2085 E Cambria St","19134","Healthy Corner Store"
205,2701554.82479940,273897.42579124,126017,"Candy 4 Days","Candy 4 Days","712 Oak Lane","19126","Healthy Corner Store"
206,2701596.20868919,253972.00528176,140013,"Caribe Grocery","Caribe Grocery","3301 N 2Nd St","19140","Healthy Corner Store"
207,2706426.40699877,252698.89955880,134015,"Carmen  Grocery","Carmen Grocery","767 East Allegheny Ave","19134","Healthy Corner Store"
208,2688082.41219867,248751.61958574,121075,"Carolina Market","Carolina Market","2952 Ridge Ave","19121","Healthy Corner Store"
209,2707608.61032049,252983.67066870,134016,"Casablanca Grocery","Casablanca Grocery","3257 Kensington Ave","19134","Healthy Corner Store"
210,2704929.89283043,262074.79181421,120015,"Castillo's Grocery","Castillo's Deli Grocery","4800 B St","19120","Healthy Corner Store"
211,2710891.64666853,256651.17392490,124018,"Chevere Mini Market #1","KE&J Mini Market","1443 E Luzerne St","19124","Healthy Corner Store"
212,2720020.25760295,272736.12796254,149005,"Chopan Food Market","Chopan's Food Market","2028 Cottman Ave","19149","Healthy Corner Store"
213,2701285.58953723,251701.30842183,133009,"Chris Grocery Store","Raquel Grocery","201 West Cambria St","19133","Healthy Corner Store"
214,2682635.07923926,238750.67347590,104023,"City Food Market","City Food Market","401 N 40th St","19104","Healthy Corner Store"
215,2676057.65203018,231594.42603665,143024,"Cjs Mini Market","CJ Mini Mart","5456 Warrington Ave","19143","Healthy Corner Store"
216,2708423.87612647,252844.70750612,134020,"Cleotilde Grocery","Grocery Benny's","3339 Jasper St","19134","Healthy Corner Store"
217,2694079.37238332,272467.30398706,138046,"CNA Tropical Market",,"6402 Wister St","19138","Healthy Corner Store"
218,2695387.17025553,269445.07316005,140022,"Collado Grocery","Jhonny's Food Mart","1956 Nedro Avenue","19141","Healthy Corner Store"
219,2674716.95816636,247287.44729526,131008,"Community Mini Market",,"1801 Georges Ln","19131","Healthy Corner Store"
1,2693670.45527218,223058.14028599,148128,"10th Ave Sandwiches",,"2654 S 10th St","19148","Healthy Corner Store"
2,2706197.28127426,266302.46120960,120001,"1111 M&S Gas, Inc.",,"5570 Rising Sun Ave","19120","Healthy Corner Store"
3,2689923.01982340,252297.22335464,132001,"27th Food Market","Martinez Grocery","2655 W Sterner St","19132","Healthy Corner Store"
4,2674987.37246022,241703.16029028,131002,"54 & Wyalusing Food Market",,"5414 Wyalusing Ave","19131","Healthy Corner Store"
5,2674708.22253726,239758.91943890,139005,"55th Street Food Market",,"5501 Race Street","19139","Healthy Corner Store"
6,2673047.28229741,226749.75177707,142001,"8 Brothers Supermarket","8 Brother Food Market","1930 S 65Th St","19142","Healthy Corner Store"
7,2690100.60055627,247534.34843075,121082,"A & L Mini Market",,"2451 W Berks St","19121","Healthy Corner Store"
8,2703470.68175473,248732.27365948,125001,"A&M Mini Market Almonte II",,"2533 Emerald St","19125","Healthy Corner Store"
9,2715665.55373951,267048.07419769,149042,"Abreu Super Deli",,"6059 Castor Ave","19149","Healthy Corner Store"
10,2674305.62960694,236648.04709230,139031,"AD Eight Brothers","AD Eight Brothers","5503 Spruce St","19139","Healthy Corner Store"
11,2691535.70736356,233134.45374333,146008,"Adabel Deli Inc","Adam's Deli & Food Marke","1739 South St","19146","Healthy Corner Store"
12,2701708.61687059,261041.30447464,140004,"Almonte Mini Market","Almonte Mini Market","328 W Annsbury St","19140","Healthy Corner Store"
13,2706454.27683229,252109.86037602,134053,"Amancio Dollar Outlet","Amancio Dollar Outlet","3101 Kensington Avenue","19134","Healthy Corner Store"
14,2713065.14175320,266246.15878359,124007,"Ami Food Market Inc.",,"899 E Sanger St","19124","Healthy Corner Store"
15,2694864.08749105,251267.11991401,132009,"Anabel's Grocery","Anabel's Grocery","1555 W Oakdale St","19132","Healthy Corner Store"
16,2674841.59923163,247775.89762145,131005,"Angelinas Grocery Store","Angelina's Grocery Store","5301 Euclid St","19131","Healthy Corner Store"
17,2726951.38901426,265687.44593336,135001,"Anna's Deli","Anna's Deli","4424 Princeton Ave","19135","Healthy Corner Store"
18,2692198.93681506,230104.53051803,146013,"Ariana Grocery II",,"1200 S 15th St","19146","Healthy Corner Store"
19,2692596.25066054,265958.84558337,144004,"Ashmead Variety",,"309 E Ashmead St","19144","Healthy Corner Store"
20,2688464.59463804,230129.21349262,146014,"Baez Grocery Llc",,"1267 S 23rd St","19146","Healthy Corner Store"
21,2674456.29996082,226268.88664394,142006,"Bain'S Halal Market And Grocery","Bain's Halal Market and","6351 Woodland Ave","19142","Healthy Corner Store"
22,2699491.73007627,259955.93585988,140095,"Basilio Grocery Store",,"801 W Bristol St","19140","Healthy Corner Store"
23,2672132.16558621,221704.63455687,142071,"Bensale","Dove Market","7244 Elmwood Ave","19142","Healthy Corner Store"
24,2684693.01648046,229614.03143045,146015,"Black Angel Food Market","Black Angel Food Market","1501 S 31St St","19146","Healthy Corner Store"
25,2689269.86523315,232546.02868395,146030,"Brianette Deli + Grocery LLC","Kennedy Grocery","755 S 22Nd St","19146","Healthy Corner Store"
26,2695189.71885672,257097.99889760,140010,"Britos Grocery",,"1627 W Erie Ave","19140","Healthy Corner Store"
27,2673077.34291857,244804.70478548,131006,"Cabrera Mini Market",,"1660 N 57Th St","19131","Healthy Corner Store"
28,2700404.18978043,259057.31560786,140016,"Carlos Mini Market #1",,"4171 N Fairhill St","19140","Healthy Corner Store"
29,2691550.66470262,228676.12774092,146016,"Castro Grocery","Castro Grocery","1500 S 16Th St","19146","Healthy Corner Store"
30,2689317.44741450,246514.42150794,121015,"Cecil B Moore Grocery","Cecil B Moore Grocery","2604 Cecil B Moore Ave","19121","Healthy Corner Store"
31,2675799.16249267,234908.06971398,143020,"Cedar Food Market Inc.","Cedar Food Market Inc.","600 S 52nd St","19143","Healthy Corner Store"
32,2679453.74522744,233376.15496085,143021,"Chester Food Plaza",,"4700 Chester Ave","19143","Healthy Corner Store"
33,2696200.12361292,228332.38954671,147064,"Chuen Hing Grocery",,"1414 S 6th St","19147","Healthy Corner Store"
34,2696522.42154551,261493.30619768,140021,"Collado Grocery",,"4501 N 15Th St","19140","Healthy Corner Store"
35,2707643.22487487,253677.86208951,134060,"Collado Mini Market",,"942 E Ontario St","19134","Healthy Corner Store"
36,2690962.43457961,263781.42233391,144007,"Complete Grocery And Deli",,"147 W Hansberry St","19144","Healthy Corner Store"
37,2695551.40631960,226936.46890223,147009,"Cristo Rey Tienda Mexicana",,"1724 South 7Th St 1st Fl","19147","Healthy Corner Store"
38,2688566.02257888,227407.05203299,145013,"Cruz & F Grocery",,"1838 S 22nd St","19145","Healthy Corner Store"
39,2689495.03968358,226824.47777236,145012,"Cruz Brother Mini Market",,"1941 S 20th St","19145","Healthy Corner Store"
40,2720706.67629700,259821.92476939,124020,"D&S Quick Stop",,"5537 Torresdale Ave","19124","Healthy Corner Store"
41,2692043.55954049,252591.19104130,132059,"Dave's Meat Market","Dave's Meat Market","2831 N 22nd St","19132","Healthy Corner Store"
42,2691661.00547901,246492.23754872,121020,"Delaware Valley Market","Delaware Valley Market","1753 N 21St St","19121","Healthy Corner Store"
43,2675048.63568041,225329.19236815,142016,"Denia A Sanchez Padilla Grocery",,"6401 Grays Ave","19142","Healthy Corner Store"
44,2696147.10355949,256970.79630362,140033,"Dollar Crazy","Erie Deli & Grocery","1414 W Erie Ave","19140","Healthy Corner Store"
45,2709370.38741762,249477.12580622,124021,"Dollar Global","Dollar Global","2413 E Allegheny Ave","19124","Healthy Corner Store"
46,2689658.56947801,228034.04112269,145020,"Duran Mini Market","Duran Grocery","1701 S 20th St","19145","Healthy Corner Store"
47,2671160.55748976,245078.72486965,151012,"Economic Jefferson Food Market",,"6101 W Jefferson St","19151","Healthy Corner Store"
48,2697644.41431800,261661.29167667,140074,"Edison Mini Market",,"4561 N 13Th St","19140","Healthy Corner Store"
49,2703133.40242937,261049.16133911,140031,"El Nino Grocery",,"4540 Rising Sun Ave","19140","Healthy Corner Store"
50,2701230.92595258,250562.29331809,133019,"El Rincon Restaurant","El Rincón Latino","186 West Lehigh Ave","19133","Healthy Corner Store"
51,2700351.38792284,258667.10128227,140032,"Elio Grocery",,"4100 N Fairhill St","19140","Healthy Corner Store"
52,2674196.17155756,223696.68183653,142024,"Elmwood Market","Elmwood Market","6731 Elmwood Ave","19142","Healthy Corner Store"
53,2702179.65811843,263826.21721510,120026,"Elvis Grocery",,"326 W Ashdale St","19120","Healthy Corner Store"
54,2696849.95525032,250571.50947742,133021,"Estevez Grocery","Esteves Grocery","1118 W Huntingdon St","19133","Healthy Corner Store"
55,2689239.09437912,271137.76357915,144009,"Estevez Grocery",,"457 E Washington Ln","19144","Healthy Corner Store"
56,2708679.90951119,265607.68712465,124027,"F&R Food Market",,"5271 Howland St","19124","Healthy Corner Store"
57,2697062.59899096,265410.03479373,141011,"Family's Grocery",,"5200 N 15th St","19141","Healthy Corner Store"
58,2670597.25344763,243873.33333150,151006,"Felton Mini Market Inc.","Felton Mini Market","6225 Lansdowne Ave","19151","Healthy Corner Store"
59,2701831.03046239,266693.20830177,120111,"Fouta Food Market","Fouta Food Market","5549 N 5th St","19120","Healthy Corner Store"
60,2713466.51470549,265975.72938053,124031,"Francisco Mini Market",,"948 E Sanger St","19124","Healthy Corner Store"
61,2699367.58542277,257688.11126543,140093,"Franklin Mini Mkt",,"3900 North Franklin Stre","19140","Healthy Corner Store"
62,2697764.43471187,247382.74162605,122011,"Friend Mini Market","Friend Mini Market","2063 N 8th St","19122","Healthy Corner Store"
63,2695298.92688258,225121.77708202,148024,"Friendly Market","Friendly Market","2135 S 7Th St","19148","Healthy Corner Store"
64,2696428.53612857,226767.88081215,148018,"Fuji Food Market","Gonzalez Primitiva","1741 S 5Th St","19148","Healthy Corner Store"
65,2688345.12738472,229261.21717140,146021,"G & N Grocery Deli","G&N Grocery","1438 S 23Rd St","19146","Healthy Corner Store"
66,2703178.18550833,254294.13476440,134042,"Garcia Grocery",,"177 E Ontario St","19134","Healthy Corner Store"
67,2699251.19692219,257132.90877831,140129,"Garcia Grocery",,"734 W Butler St","19140","Healthy Corner Store"
68,2726934.33690900,265711.20083513,135039,"George's Deli","George's Deli","4419 Princeton Ave","19135","Healthy Corner Store"
69,2690247.54708461,229031.96980662,146022,"Gil Grocery #2","Wilder St Food Market","1426 S 19th St","19146","Healthy Corner Store"
70,2700165.53382581,258692.96837544,140048,"Gomez Grocery",,"4100 N 6Th St","19140","Healthy Corner Store"
71,2702677.97499844,268970.80558581,120031,"Gonzalez Grocery","Gonzalez Grocery","5963 N 4Th St","19120","Healthy Corner Store"
72,2708501.68999841,263852.46901351,124036,"Gonzalez Mini Market",,"5144 Whitaker Ave","19124","Healthy Corner Store"
73,2688672.48967597,266049.63078484,144013,"Green Grocer",,"5810 Greene Stste 1","19144","Healthy Corner Store"
74,2705437.39733943,265041.88728695,120097,"Guerrero Grocery",,"5324 Rising Sun Ave","19120","Healthy Corner Store"
75,2694303.86141267,224378.21336697,148032,"Hai Yan Grocery","Hai Yan Grocery","2330 S 9th St","19148","Healthy Corner Store"
76,2710486.51676241,256312.22051916,134131,"Health Food International","Health Food Internationa","3939 M St","19134","Healthy Corner Store"
77,2704093.31874616,262174.61861334,120112,"Hershey's Ice Cream Grocery","Hershey's Ice Cream Groc","146 E. Louden St","19120","Healthy Corner Store"
78,2693707.86332276,241082.68865018,130024,"Hot Spot Grocery & Deli","Hot Spot Grocery & Deli","655 N 15th St","19130","Healthy Corner Store"
79,2689184.20376937,263488.75004445,144017,"J & J Family Grocery",,"301 W Coutler St","19144","Healthy Corner Store"
80,2682842.26171196,243351.33672205,104011,"J & R Food Market",,"3874 Poplar St","19104","Healthy Corner Store"
81,2717234.76000029,260182.16309294,124042,"J & R Mini Market","JR Mini Market","1838 Harrison St","19124","Healthy Corner Store"
82,2702929.07132852,264189.63110658,120036,"Jaquez Family Grocery",,"5134 N 2nd St","19120","Healthy Corner Store"
83,2704320.51231817,270105.04070548,120037,"Jaquez Grocery",,"143 West Godfrey Ave","19120","Healthy Corner Store"
84,2690091.93699015,267797.23083057,144018,"Jaquez Grocery","Jaquez Grocery","301 E Price St","19144","Healthy Corner Store"
85,2694125.19175948,226356.08540400,148036,"Jd Grill & Deli Inc",,"1913 S 10Th St","19148","Healthy Corner Store"
86,2705437.51815123,252833.80082743,134056,"Jerrys General","Discount Cigarettes","600 E Allegheny Ave","19134","Healthy Corner Store"
87,2676238.66830431,240496.82029537,139036,"Jonalis Grocery","Jonathan Cepeda Grocery","315 N 52nd Street","19139","Healthy Corner Store"
88,2696988.66747317,223482.62141697,148040,"Jose Vargas Deli","Richie Deli","2438 S 3Rd St","19148","Healthy Corner Store"
89,2670474.29828559,246936.42605401,151022,"Joseph P Giordano Jr",,"6154 Lancaster Ave","19151","Healthy Corner Store"
90,2693497.32530340,274299.30496177,138011,"Josue Grocery","Josue Grocery","6672 Cornelius St","19138","Healthy Corner Store"
91,2694946.02351742,229001.69666547,148055,"L M Grocery Store","L M Grocery","1309 S 9th St","19148","Healthy Corner Store"
92,2693038.53457929,228260.52636533,147026,"La Fortuna",,"1548 S 13th Street","19147","Healthy Corner Store"
93,2701505.57045802,254523.69931627,140064,"La Original Grocery",,"212 W Ontario St","19140","Healthy Corner Store"
94,2698369.61536167,245268.71635416,122017,"La Sienega Deli Grocery #1",,"601 Cecil B Moore Ave","19122","Healthy Corner Store"
95,2698787.06991642,242732.04005222,123012,"Lawrence Bakery Inc.",,"423 W Girard Ave","19123","Healthy Corner Store"
96,2686023.81452819,266784.64636181,144041,"Lee's Market","Lee's Market","280 W Washington Ln","19144","Healthy Corner Store"
97,2695467.03824284,223084.55368525,148051,"Little Petes Deli","Little Pete's Deli","2600 S 6Th St","19148","Healthy Corner Store"
98,2696309.40346045,225911.70037619,148054,"Los Coyotes","Los Volcanos","1924 S 5Th St","19148","Healthy Corner Store"
99,2717504.24525766,260631.91445046,124056,"Los Manueles Grocery",,"1829 Wakeling St","19124","Healthy Corner Store"
100,2690043.47174344,269586.08077310,144025,"Magnolia Variety Store",,"461 E High St","19144","Healthy Corner Store"
101,2714970.18198823,257568.47017249,124023,"Manabao Food Market",,"1900 Church St","19124","Healthy Corner Store"
102,2703157.41086145,243796.28535530,125014,"Mandi's Deli","Mandi's Deli & Steak Sho","543 E Thompson St","19125","Healthy Corner Store"
103,2705994.71818156,260366.54640027,120051,"Marcela Market",,"4566 D Street","19120","Healthy Corner Store"
104,2717396.19022843,256983.89531464,124061,"Margaret Mini Market",,"2300 Margaret Street","19124","Healthy Corner Store"
105,2703401.74622684,254262.77824275,134134,"Marlin's Deli","V & V Deli","208 E Ontario St","19134","Healthy Corner Store"
106,2673256.74327557,243771.16465272,131026,"Martinez Grocery","Media Geocery","1501 N 57Th St","19131","Healthy Corner Store"
107,2674500.58513070,243373.70942695,131023,"Maximino Food Market Inc","Rodriguez #2 Mini Market","5453 Master St","19131","Healthy Corner Store"
108,2691517.99453628,247110.91913521,121039,"Mercado Food Market","Mercado Food Market","1859 N Van Pelt St","19121","Healthy Corner Store"
109,2675999.31450726,236421.65146080,143064,"Mezquita Grocery","Mezquita Grocery","300 S 52nd St","19143","Healthy Corner Store"
110,2697766.05151280,249650.65330397,133060,"Mini Mart","Mini Mart","2445 Germantown Ave","19133","Healthy Corner Store"
111,2693546.91591349,225518.93804523,148062,"Mom's Variety","Mom's Variety","1101 Cantrell St","19148","Healthy Corner Store"
112,2694749.69363206,261735.73016307,140078,"Mora Mini Market Inc",,"4501 N 19Th St","19140","Healthy Corner Store"
113,2702636.82818909,245407.17651588,125031,"Mr. Bill's Deli","Mr. Bill's Deli","1638 E Berks St","19125","Healthy Corner Store"
114,2693135.03405675,249990.10500785,132079,"Norris St Convenience Store","Norris St Convenience St","2400 N 19th St","19132","Healthy Corner Store"
115,2691549.97762840,227777.27574741,145046,"Nu Mini Market",,"1542 Morris St","19145","Healthy Corner Store"
116,2692213.44640123,231699.88998128,146035,"Nunez Grocery",,"1544 Christian St","19146","Healthy Corner Store"
117,2698343.17328137,247510.12305389,122022,"Ortega Grocery #2",,"642 Diamond St","19122","Healthy Corner Store"
118,2694204.88970422,258471.40907356,140025,"P&P Mini Market",,"1900 W Hunting Park Ave","19140","Healthy Corner Store"
119,2674050.63379917,241894.95169424,131027,"Papi Food Market","Papi Food Market","641 N 56th St","19131","Healthy Corner Store"
120,2716362.00348212,264565.60291916,124073,"Papos Grocery",,"1601 E Cheltenham Ave","19124","Healthy Corner Store"
121,2685538.76720622,240155.93594838,104029,"Peralta Food Market",,"601 N 34th St","19104","Healthy Corner Store"
122,2714999.99157063,265221.07052197,124069,"Peralta Food Market",,"5451 Rutland St","19124","Healthy Corner Store"
123,2691974.02007200,248762.38672887,121046,"Peralta's Grocery","Susquehanna Food Market","2163 N 21St St","19121","Healthy Corner Store"
124,2699135.85141684,253700.53673579,133039,"Perez Grocery #2","Aria Grocery (? - faded","640 W Allegheny Ave","19133","Healthy Corner Store"
125,2691861.14792000,229101.78607453,146039,"Phong Grocery","Phong Grocery","1519 Reed St","19146","Healthy Corner Store"
126,2698460.00489581,249794.03535882,133059,"Pichardo Food Market","Pichardo's Food Market","701 W Cumberland St","19133","Healthy Corner Store"
127,2679300.78644285,234454.65054006,143124,"Pickles and Pies Deli","Pickles & Pies","4533 Baltimore Ave","19143","Healthy Corner Store"
128,2677423.48531565,241028.21689478,139052,"Porfi Grocery","Lorena's Grocery","850 N 50th St","19139","Healthy Corner Store"
129,2707724.80868000,263831.60987254,124001,"R&W",,"5087 F St","19124","Healthy Corner Store"
130,2677500.12063553,229208.14536899,143072,"Ray's Grocery",,"5540 Woodland Ave","19143","Healthy Corner Store"
131,2690438.20764776,230432.96113729,146020,"Right Triangle","Dorothy J. V. Perrine","1201 S 19Th St","19146","Healthy Corner Store"
132,2689977.69174818,246073.10339746,121049,"Rodriguez Food Market II","Quality Food Mart","2454 Turner St","19121","Healthy Corner Store"
133,2690520.19117264,252627.46220121,132040,"Rodriguez Mini Market","Rodriguez Mini Market","2513 W Somerset St","19132","Healthy Corner Store"
134,2706246.26761643,250727.85914816,134089,"Romano Grocery","Romano Grocery","2000 E Orleans St","19134","Healthy Corner Store"
135,2674129.74922704,222020.15867299,142051,"Romano Grocery",,"6935 Dicks Ave","19142","Healthy Corner Store"
136,2688609.92357818,245058.30528533,121029,"Sajoma Grocery","J & M Grocery","1400 N Etting St","19121","Healthy Corner Store"
467,2706134.73003188,253887.55733235,134012,"Bonifacio Grocery","Marisol Mini Market","701 E Ontario St","19134","Enhanced Healthy Corner Store"
468,2677101.19902440,234068.45881159,143017,"Boost Market","Market","4922 Baltimore Ave","19143","Enhanced Healthy Corner Store"
469,2688048.54572625,246548.08722556,121010,"Bravo Mini Market","Bravo Mini Mart","1646 N 29Th St","19121","Enhanced Healthy Corner Store"
470,2699768.78341895,246758.49587142,122018,"Brillante Mini Market","Brillante Mini Market","312 W Norris St","19122","Enhanced Healthy Corner Store"
471,2694188.38583859,247850.74890623,121071,"Brisita Grocery","Fontain Deli Market","2027 N 16th St","19121","Enhanced Healthy Corner Store"
472,2691888.65688414,244566.76124551,121012,"Brother's Mini Market","Brother?s","2012 Ridge Ave","19121","Enhanced Healthy Corner Store"
473,2690240.17024980,248071.48011958,121013,"C Food Market","C Community Food Market","2440 W Norris St","19121","Enhanced Healthy Corner Store"
474,2700940.87647745,246595.55277930,122007,"Canemo Grocery","Tejada Food Market","172 W Norris St","19122","Enhanced Healthy Corner Store"
475,2722503.36079958,277021.35861467,152002,"Castor Discount","Castor Discount Grocery","8011 Castor Ave","19152","Enhanced Healthy Corner Store"
476,2689009.59699672,232122.24615566,146017,"Christian Food Market","Christian Food Market","2243 Christian Street","19146","Enhanced Healthy Corner Store"
477,2700365.48505354,251273.43740818,133010,"Chuchu Mini Market","Chuchu Mini Market","323 W Somerset St","19133","Enhanced Healthy Corner Store"
478,2692432.33696001,244914.43294527,121017,"City Food Market","City Food Market","1445 North 19th St","19121","Enhanced Healthy Corner Store"
479,2687992.36450432,246170.00698461,121019,"Community Food Market Llc #1","Community Minimarket","2901 W Oxford St","19121","Enhanced Healthy Corner Store"
480,2669885.53872227,242092.02112104,151009,"Community Mini Market","Community Mini Market","6400 W Girard Ave","19151","Enhanced Healthy Corner Store"
481,2693176.81401189,226021.71262298,148132,"Convenience Grocery","Convenience Grocery","2015 S 12th St","19148","Enhanced Healthy Corner Store"
482,2695301.47435776,231568.61939232,147084,"Dasani LLC","Dasani","800 S 9th St","19147","Enhanced Healthy Corner Store"
483,2690284.47378654,249809.29197823,132034,"De Los Santos Mini Mart","25th St Mini Mart","2300 N 25th St","19132","Enhanced Healthy Corner Store"
484,2675604.39023328,236277.17878713,143042,"Delancey Food Market","German Grocery","5266 Delancey St","19143","Enhanced Healthy Corner Store"
485,2703985.36436482,261610.94173064,120020,"Diaz Grocery","Diaz Grocery","140 E Wyoming Ave","19120","Enhanced Healthy Corner Store"
486,2672222.10730261,233697.27580206,143041,"Dios Prueba el Hombre Grocery","Ventura Papi Grocery","901 S 58th St","19143","Enhanced Healthy Corner Store"
487,2697364.20391927,250422.89020526,133016,"Double Star Food Mart","Double Star Food Mart","2562 Germantown Ave","19133","Enhanced Healthy Corner Store"
488,2674541.63850568,226349.55116278,142021,"Dynamic Dollar","Dynamic Dollar","6316 Woodland Ave","19142","Enhanced Healthy Corner Store"
489,2695208.96601139,248595.92796011,132092,"Eagle Super Food Market","Eagle Super Food Market","2208 N Broad St","19132","Enhanced Healthy Corner Store"
490,2696433.58713833,226801.39256603,148019,"El Rey Dominicano Super Market","El Rey Dominicano","1724 S 5Th St","19148","Enhanced Healthy Corner Store"
491,2695026.43381846,223143.93506818,148060,"El Rey Dominicano Supermarket I","El Rey Dominicano Superm","2601 S 7Th St","19148","Enhanced Healthy Corner Store"
492,2700661.43176094,247003.51562142,122004,"El Ruvio Grocery","El Ruvio Grocery","2066 N 2nd St","19122","Enhanced Healthy Corner Store"
493,2671281.47952595,235150.62950054,143033,"Ena Foods, Inc","ENA Foods","648 S 60Th St","19143","Enhanced Healthy Corner Store"
494,2693129.47261860,245463.02865349,121025,"Estevez Food Market","8 Brother's Food Market","1738 W Oxford St","19121","Enhanced Healthy Corner Store"
495,2696203.18293700,248989.99471497,133097,"Family M Mini Mart","Torres Mini Mart","1213 W Dauphin St","19133","Enhanced Healthy Corner Store"
496,2699319.72899227,252541.59845034,133066,"Felix Grocery","Felix Grocery","3000 N 6th St","19133","Enhanced Healthy Corner Store"
497,2700017.73904239,252432.88792842,133065,"Filpo Grocery","Reyes Grocery","440 W Indiana Ave","19133","Enhanced Healthy Corner Store"
498,2698911.52460047,253038.32331878,140045,"Fior Mini Market","Miledis Grocery","3064 N 7th St","19133","Enhanced Healthy Corner Store"
499,2699251.38338596,244094.46481250,122016,"Four Jefferson Mini Market","La Joya Grocery","1500 N 4Th St","19122","Enhanced Healthy Corner Store"
500,2702588.57011855,252875.62136401,133029,"Front Street Grocery Store Inc","Front St Grocery","3123 N Front St","19133","Enhanced Healthy Corner Store"
501,2699623.98907957,258217.62016091,140046,"Gil's Deli","Gil's Deli","4001 N 7Th St","19140","Enhanced Healthy Corner Store"
502,2695984.35050102,239795.82260648,123008,"Golden Bridge Grocery","Golden Bridge Grocery","551 N 10th St","19123","Enhanced Healthy Corner Store"
503,2704130.24702572,248242.14603295,125009,"Gomez Grocery","Gomez Grocery","2572 Frankford Ave","19125","Enhanced Healthy Corner Store"
504,2668219.09294495,244132.36373470,151019,"Gomez Grocery","Economic Mini Mart","6621 Lebanon Ave","19151","Enhanced Healthy Corner Store"
505,2692985.05752152,261747.43430869,144036,"Gomez Supermarket","Gomez Supermarket","4562 Wayne Ave","19144","Enhanced Healthy Corner Store"
506,2679983.20590012,231662.01107311,143054,"Good Neighbor Mini Mart","Good Neighbor Market","4837 Woodland Ave","19143","Enhanced Healthy Corner Store"
507,2684173.67601577,240767.67227687,104031,"Good Neighbor Supermarket","Good Neighbor Supermarke","3701 Fairmount Ave","19104","Enhanced Healthy Corner Store"
508,2705081.71319012,252309.90111974,134051,"Herrera Grocery","J.A.M.M. Grocery","3101 Rorer St","19134","Enhanced Healthy Corner Store"
509,2699837.14753941,252195.44867614,133099,"Indiana Food Market","Indiana Food Market","2952 N 5th St","19133","Enhanced Healthy Corner Store"
510,2672377.15534537,221943.53995618,142037,"J & D Market","K&D International Market","7200 Elmwood Ave","19142","Enhanced Healthy Corner Store"
511,2673407.48034807,234103.63697077,143022,"J & D Mini Market","Christian Mini Market","801 S 56th St","19143","Enhanced Healthy Corner Store"
512,2691376.55684467,240658.81148450,130010,"J & K Food Market","J & K Food Market","2001 Green St","19130","Enhanced Healthy Corner Store"
513,2676392.72263671,230417.60013018,143045,"Jaquez Mini Market","Jaquez Market","5535 Chester Ave","19143","Enhanced Healthy Corner Store"
514,2679023.58209010,232960.66079904,143046,"Jennifer Grocery","Jennifer Grocery","4823 Chester Ave","19143","Enhanced Healthy Corner Store"
515,2699165.34610776,258576.12904860,140079,"Jerez Grocery","Jerez Grocery","4056 N Darien St","19140","Enhanced Healthy Corner Store"
516,2702639.80265157,254369.75727067,140060,"Joselin Grocery","Joselin Mini Mart","106 W Ontario St","19140","Enhanced Healthy Corner Store"
517,2694180.32582452,223485.17682560,148042,"Josie's Food Market","Josie's Food Market","2554 S 9Th St","19148","Enhanced Healthy Corner Store"
518,2700003.01141490,249580.01893941,133049,"Josue Grocery","Josue Grocery","401 W Cumberland St","19133","Enhanced Healthy Corner Store"
519,2701646.54922466,265341.82072910,120039,"Joy & Smile Deli","Joy & Smile Deli","5301 N 5th St","19120","Enhanced Healthy Corner Store"
520,2704849.18072795,262636.62117472,120042,"Kailyn Grocery","Kailyn Grocery","253 E Rockland St","19120","Enhanced Healthy Corner Store"
521,2694458.18361313,249803.80711369,132042,"L K Mini Market #1","L&K Mini Market","2401 N 16th St","19132","Enhanced Healthy Corner Store"
522,2706083.74560514,262315.15001918,120044,"L&M Food Market","L & M Food Market","4863 D St","19120","Enhanced Healthy Corner Store"
523,2691788.71557179,229565.21669697,146054,"La Fuerza","La Fuerza","1540 Wharton St","19146","Enhanced Healthy Corner Store"
524,2695049.48264356,226506.42525513,148064,"Latin Spot","Saborcito","1839 S 8Th St","19148","Enhanced Healthy Corner Store"
525,2673454.23657085,225297.24656529,142040,"Liberty African Grocery","Liberty Grocery","6629 Woodland Ave","19142","Enhanced Healthy Corner Store"
526,2715836.15684553,270502.16660805,111012,"Li'S Market","Li's Market","1201 Magee Ave","19111","Enhanced Healthy Corner Store"
527,2700076.79266490,249014.98393025,133056,"Lisseth Grocery","Tairina Grocery","313 W York St","19133","Enhanced Healthy Corner Store"
528,2698259.80574233,253023.51666653,133085,"Lopez Grocery",,"3062 N 9th St","19133","Enhanced Healthy Corner Store"
529,2707154.86484781,253943.69196888,134073,"Lucas Grocery","Lucas Grocery","875 E Russell St","19134","Enhanced Healthy Corner Store"
530,2690185.56598384,245873.11235783,121014,"LX Minimart","LX Minimart","2400 W Oxford St","19121","Enhanced Healthy Corner Store"
531,2707628.95636900,260939.15589905,120068,"Malyah Grocery","Robles Grocery","4669 G St","19120","Enhanced Healthy Corner Store"
532,2668934.88248148,248639.49666575,151024,"Mama Deli","Bill's Market","2117 N 63rd St","19151","Enhanced Healthy Corner Store"
533,2696305.18602044,229080.17101957,147032,"Marie's Grocery Store","Marie's Grocery","1229 S 6th St","19147","Enhanced Healthy Corner Store"
534,2698937.41391774,252024.55487677,133083,"Martinez Grocery","Cindy & Julian Grocery S","647 West Cambria St","19133","Enhanced Healthy Corner Store"
535,2709486.97269735,268251.02133605,120052,"Michael Food Market","Michael Grocery","599 E Godfrey Ave","19120","Enhanced Healthy Corner Store"
536,2701201.75006080,246560.35445780,122003,"Michelle Grocery","Annie's Grocery","147 W Norris St","19122","Enhanced Healthy Corner Store"
537,2693068.51851892,228466.00000562,147034,"Michelles Market","Michelles Market","1501 S 13th St","19147","Enhanced Healthy Corner Store"
538,2674641.06093336,241652.66847099,131012,"Mini Market Rodriguez","Hot & Cold Food Grocery","601 N 55Th St","19131","Enhanced Healthy Corner Store"
539,2674014.49568677,247834.04382308,131025,"Morgan's Fruits & Vegetables","Morgan's","1921 N 54Th St","19131","Enhanced Healthy Corner Store"
540,2692196.84845855,240032.69586844,130018,"Museum Market","Museum Market","1800 Spring Garden St","19130","Enhanced Healthy Corner Store"
541,2671012.80324196,240812.79335768,151045,"Nadia's Market","Nadia's Market","6152 Vine St.","19151","Enhanced Healthy Corner Store"
542,2692155.40657527,250105.38417961,132014,"New Life Food Market","Brothers Food Market","2101 W York St","19132","Enhanced Healthy Corner Store"
543,2679491.63921259,234482.90678463,143067,"Nigerian African Food Market","Nigerian African Food Ma","4517 Baltimore Ave","19143","Enhanced Healthy Corner Store"
220,2698565.10635399,263493.80680143,141007,"Community Variety Grocery Store","Community Groceries","1116-18 Rockland St","19141","Healthy Corner Store"
221,2676374.47070564,237256.75547108,139019,"Connie's Food Store","Connie's Food Store","5153 Walnut St","19139","Healthy Corner Store"
222,2729521.73563912,266155.95557017,136004,"Cottman Grocery","Cottman Grocery","7417 Torresdale Ave","19136","Healthy Corner Store"
223,2672346.26495656,248451.34761801,131010,"Crest Food Market","Crest Food Market","5731 Malvern Ave","19131","Healthy Corner Store"
224,2690420.28069483,227018.06055497,145015,"Cruz's Grocery","Cruz Grocery","1901 S 18Th St","19145","Healthy Corner Store"
225,2694091.54922980,250409.02243987,132020,"Cumberland Food Market","Cumberland Food Market","2500 N 17th St","19132","Healthy Corner Store"
226,2715804.81844949,258779.20468744,124019,"D & R Food Market","D & R Food Market","1801 Orthodox St","19124","Healthy Corner Store"
227,2724261.06373226,264616.28160634,135037,"D' Angela Mini Market","D' Angela Mini Market","6663 Walker St.","19135","Healthy Corner Store"
228,2679423.02600135,234471.30662220,143099,"Davis Pharmacy","Davis Drugs","4523 Baltimore Ave","19143","Healthy Corner Store"
229,2703026.79423516,252034.10739451,134023,"Decoo Grocery","Decoo Grocery","3000 A St","19134","Healthy Corner Store"
230,2708578.25391392,252959.03188832,134014,"Del Orbe Mini Market","Del Orbe Mini Market","3359 Jasper St.","19134","Healthy Corner Store"
231,2707107.11266979,248536.58126844,134025,"Dennis Grocery","Collado Grocery","2333 East Cambria St","19134","Healthy Corner Store"
232,2705343.83971443,264884.92026893,120100,"Dheera Fuels Inc","Penn's Grocery","5302 Rising Sun Ave","19120","Healthy Corner Store"
233,2706583.67967314,250451.36858453,134122,"Dilena Food Market","Frankford Market","2975 Frankford Avenue","19134","Healthy Corner Store"
234,2672486.96230798,234231.93349648,143071,"Dios Prueba el Hombre #2","Dios Prueba el Hombre #2","5736 Christian St","19143","Healthy Corner Store"
235,2696592.52504373,262023.09167967,140030,"Duran Groceries","Duran Grocery","1501 W Courtland St","19140","Healthy Corner Store"
236,2699081.40867465,263981.73603592,141009,"Duran Grocery Store","Duran Grocery Store","1025 W Ruscomb St","19141","Healthy Corner Store"
237,2718217.48621859,273996.18759385,111006,"E Z Gas Mini Mart","E Z Gas Mini Mart","1701 Cottman Ave","19111","Healthy Corner Store"
238,2672622.45595759,241996.99652901,131043,"Economic Mini Mart","Economic Mini Mart","5901 Girard Ave","19131","Healthy Corner Store"
239,2672713.10316359,222263.54789422,142011,"Elmwood Mini Market Inc","Elmwood Market","7110 Elmwood Ave","19142","Healthy Corner Store"
240,2707972.76655535,251994.52138326,134032,"Emerald Deli & Grocery","Emerald Deli","3234 Emerald St","19134","Healthy Corner Store"
241,2698973.84933236,257185.65696011,140051,"Enmanuel Mini Market","Henriquez Mini Market","3801 N Darien St","19140","Healthy Corner Store"
242,2719376.98997734,261663.38365178,124026,"Erdrick St. Food Market","Erdrick St Food Market","5456 Erdrick St","19124","Healthy Corner Store"
243,2690913.35049193,247748.53435501,121024,"Espinal Grocery","Espinal Grocery","1959 North 23rd St","19121","Healthy Corner Store"
244,2673596.29452253,239914.39450427,139023,"Espinal Grocery","Espinal Grocery","200 N 57th St","19139","Healthy Corner Store"
245,2673738.23995308,225574.36600790,142027,"Executive African Food & Fashio","Executive African Food &","6531 Woodland Ave","19142","Healthy Corner Store"
246,2670817.49877990,240272.62931318,139092,"Fair's One Stop Deli & Market","Fair's One Stop Deli & M","6201 Race St","19139","Healthy Corner Store"
247,2695459.51993577,255359.46988894,140035,"Family Discount, Inc","Family Discount","1520 W Ontario St","19140","Healthy Corner Store"
248,2677787.51456381,265718.76630685,128006,"Family Produce","Family Produce Market","6160 Ridge Ave.","19128","Healthy Corner Store"
249,2708356.02206130,247554.74419636,134036,"Fat Mom's","Fat Mom's","2600 E Ann Street","19134","Healthy Corner Store"
250,2700987.85602553,254611.39732406,140037,"Fernandez Grocery","Fernandez Grocery","3401 N 3Rd St","19140","Healthy Corner Store"
251,2689016.26830220,227379.59515363,145044,"Fernandez Mini Market","Fernandez Mini Market","1826 S 21St St","19145","Healthy Corner Store"
252,2705893.71161146,252990.29884317,134037,"Ferrer Grocery","Discover Grocery","658 E Hilton St","19134","Healthy Corner Store"
253,2709573.43404321,256834.48597248,124074,"Ferroma Inc","Romano Grocery","1219 E. Luzerne Street","19124","Healthy Corner Store"
254,2701611.06386185,247833.68104380,133027,"Filpo Grocery","Vanessa Mini Mart","2218 N Howard St","19133","Healthy Corner Store"
255,2703709.02957550,270184.33660729,120030,"Franciela Grocery","Franciela Grocery","200 W Godfrey Ave","19120","Healthy Corner Store"
256,2704962.10479435,250975.95979267,134039,"Frank Market Inc","Frank Market","2850 Kensington Ave","19134","Healthy Corner Store"
257,2705878.03908892,253523.88678040,134041,"Friendly Corner","Friendly Corner Store","664 E Cornwall St","19134","Healthy Corner Store"
258,2727420.69760685,284179.08161425,115002,"Fruit And Produce Inc.","Fruit and Produce Inc.","1916 Welsh Rd Ste 11","19115","Healthy Corner Store"
259,2672641.72753227,241177.42783676,151017,"Garcia Food Market","Garcia Food Market","401 N 59th St","19151","Healthy Corner Store"
260,2704047.80712243,254175.99292998,134077,"Garcia Grocery","Garcia Grocery LLC","315 E Ontario St","19134","Healthy Corner Store"
261,2690268.10321822,241481.17158522,130022,"Garden Fresh","Garden Fresh","2244 Fairmount Ave","19130","Healthy Corner Store"
262,2689762.39567879,266765.84073004,144010,"Germantown Eden Produce","Eden Produce","35 E Chelten Avestore A","19144","Healthy Corner Store"
263,2689762.39568338,266765.84072895,144011,"Giant Dollar Plus, Inc.","Giant Dollar Plus","35 E Chelten Ave","19144","Healthy Corner Store"
264,2699536.20816081,251401.26429963,133036,"Gomez Grocery","J&W Food Market","2800 N Reese Street","19133","Healthy Corner Store"
265,2694974.30337266,261705.87574151,140049,"Gratz Mini Market","Gratz Food Market","4500 N Gratz St","19140","Healthy Corner Store"
266,2677166.76013965,238869.21471937,139013,"Gregory Grocery",,"5027 Arch St","19139","Healthy Corner Store"
267,2706675.54141896,253819.27786317,134027,"Guadalupe Grocery","Guadalupe Grocery","3401 G St","19134","Healthy Corner Store"
268,2697417.28897234,264622.40184848,141017,"Ha Ha's Market","Ha Ha's Market","5035 N Broad St","19141","Healthy Corner Store"
269,2685646.52591503,239466.55199001,104012,"Hamilton Express Deli LLC","Kimey's Place","3401 Hamilton St","19104","Healthy Corner Store"
270,2708203.95035210,249674.83928161,134137,"Hank's Deli","Hank's Deli","2300 E Clearfield","19134","Healthy Corner Store"
271,2716174.21380928,260867.32093154,124039,"Harrison Food Market","Harrison Food Market","1647 Harrison St","19124","Healthy Corner Store"
272,2690875.22554731,231873.90984847,146034,"Harry's House","May's Café, Llc","1847 Christian St","19146","Healthy Corner Store"
273,2718753.31437131,273619.00017509,111010,"Harrys Natural Health","Harry's Natural Health","1805 Cottman Ave","19111","Healthy Corner Store"
274,2688482.53180814,268244.85480362,144057,"Healthy Nutrition LLC","Healthy Nutrition LLC","25 E Walnut Ln","19144","Healthy Corner Store"
275,2702864.81086425,254893.82203101,134050,"Hernandez Grocery #1","Front St. Mini Market","100 E Tioga St","19134","Healthy Corner Store"
276,2703042.46343056,254868.69787303,134049,"Hernandez Grocery #2","Hernandez Grocery #2","118 E Tioga St","19134","Healthy Corner Store"
277,2706372.91457638,252887.34684774,134142,"Hong's Market","Hongs Market","769 E Hilton St","19134","Healthy Corner Store"
278,2706744.60263289,252329.01162446,134052,"Humphries","Humphries","3130 Kensington Ave","19134","Healthy Corner Store"
279,2668920.83737299,248670.37150637,151021,"Hwan J Kims Fd Mkt","Overbrook Market","2123 N 63Rd St","19151","Healthy Corner Store"
280,2675401.15510364,245710.91993762,131033,"I and S mini Market","I and S mini Market","5256 W Jefferson St","19131","Healthy Corner Store"
281,2707025.92586807,251307.68041713,134061,"Ily Grocery Store","Joel Food Market","3101 Emerald St","19134","Healthy Corner Store"
282,2692721.75020069,253442.07588485,132033,"Indiana Grocery","Indiana Mini Market","2066 W Indiana Ave","19132","Healthy Corner Store"
283,2708294.45205682,248341.11018622,134054,"Indiana Joe's","Indiana Joe's","2501 E Indiana Ave","19134","Healthy Corner Store"
284,2698484.20939162,252644.32627346,133034,"Indiana Street Mini Market","Indiana Mini Market","801 W Indiana Ave","19133","Healthy Corner Store"
285,2692910.54056291,248852.43708977,121030,"J And M Convenience Store","J&M Convenience Store","1907 W Susquehanna Ave","19121","Healthy Corner Store"
286,2701958.62446069,267593.51378756,120106,"J&S Produce","J & S Produce","5701 N 5th St","19120","Healthy Corner Store"
287,2708203.95035210,249674.83928161,134104,"Jaquez Deli Grocery","Jaquez Deli Grocery","2301 E Clearfield St","19134","Healthy Corner Store"
288,2676017.89662783,225762.94425754,142032,"Jaquez Grocery","Jaquez Grocery","2435 S 62nd St","19142","Healthy Corner Store"
289,2694976.62524633,253566.55573883,132037,"Jaquez Mini Market","Jaquez Mini Market","3061 N 16th St","19132","Healthy Corner Store"
290,2700315.91491599,263249.93530746,120038,"J-Di Deli #1","J-Di Deli","700 W Rockland St","19120","Healthy Corner Store"
291,2707726.81013096,253666.32105718,134094,"Jeremy Grocery","Jeremy Grocery","965 E Ontario St","19134","Healthy Corner Store"
292,2705951.91363148,252586.48083840,134088,"Jhoany Grocery","Jhoany Grocery","3130 F St","19134","Healthy Corner Store"
293,2697686.35182101,255417.95294911,140059,"Jimenez Grocery","Rising Sun Grocery","3428 N 11Th St","19140","Healthy Corner Store"
294,2698062.44568812,251597.53184724,133098,"JM Grocery","JJ Grocery","2801 N 9th St","19133","Healthy Corner Store"
295,2697143.95151740,269380.58505341,141019,"Johanny Grocery Store","Nedro Grocery","1601 Nedro Ave","19141","Healthy Corner Store"
296,2674744.38541592,230313.41306579,143048,"Jose Jimenez Grocery","Mini Market","1701 S 58th St","19143","Healthy Corner Store"
297,2693723.70462752,251011.30142775,132041,"Joselin Groceries","Joselin Grocery","2600 N 18th St","19132","Healthy Corner Store"
298,2688931.24721001,230065.83050094,146033,"JR and V Mini Market, Inc.","Joshuah Food Market","1267 S 22Nd St","19146","Healthy Corner Store"
299,2690741.28093411,229367.42884468,146027,"Juan Carlos Gomez Grocery","18th St Grocery","1344 S. 18th Street","19146","Healthy Corner Store"
300,2674206.55077959,232435.59337154,143032,"JW Supermarket","JW Supermarket","1135 S 56Th St","19143","Healthy Corner Store"
301,2728464.78334525,267618.89447737,136006,"Kaila's Place","Kaila's Place","4300 Loring St","19136","Healthy Corner Store"
302,2687403.79888897,245224.86709380,121034,"Karen Mini Market","Karen Mini Mart","1400 N 30Th St","19121","Healthy Corner Store"
303,2700430.07138114,259248.32275523,140106,"Karina Grocery","Karina Grocery","4200 N Fairhill St","19140","Healthy Corner Store"
304,2706021.82596077,254292.23431536,134069,"Keim Food Market","Keim Food Market","3469 Keim St","19134","Healthy Corner Store"
305,2689992.05494823,262933.07264130,144022,"Kil Lee Market",,"5254 Pulaski Ave","19144","Healthy Corner Store"
306,2689438.81986369,232065.82761774,146031,"Kim Van's Café, Grocery & Deli","Kim Van's Café, Grocery","2148 Christian St","19146","Healthy Corner Store"
307,2676919.13098092,230381.79114727,143056,"Kingssesing Food Market","Kingsessing Food Market","1550 S 55th St","19143","Healthy Corner Store"
308,2671110.03182656,241365.30707166,151015,"Koury Grocery","Koury Grocery","6152 Callowhill St","19151","Healthy Corner Store"
309,2692286.98149214,229498.09238484,146025,"La Meca Food Market","La Meca Food Market","1429 Wharton St","19146","Healthy Corner Store"
310,2681985.61609608,243060.82315810,104020,"La Super Big Manny Grocery Stor","La Super Big Manny","1013 N 40th St","19104","Healthy Corner Store"
311,2709110.46755257,252574.07589186,134059,"Ledesma Grocery","Ledesma Grocery","2023 E Ontario St","19134","Healthy Corner Store"
312,2702028.38145150,248753.54311999,133046,"Lee's Food Cart, Inc.","Lee's Food Cart","2401 N Front St","19133","Healthy Corner Store"
313,2702778.30844676,247691.40142340,125030,"Leotah's Place","Leotah's Place","2033 E York St","19125","Healthy Corner Store"
314,2699045.48210861,241024.43617608,123030,"Liberty Deli","Liberty Deli","326 Poplar St","19123","Healthy Corner Store"
315,2671594.35246931,226024.44400121,142045,"Liberty Mini Market","Liberty Mini Market","1838 S 68th St","19142","Healthy Corner Store"
316,2710906.93946130,258379.01192530,124054,"Linda Deli","Linda's Deli","1412 E Bristol St","19124","Healthy Corner Store"
317,2694275.60529387,222518.17492502,148050,"Lin's Grocery Store","Lin's Grocery Store","2746 S Darien St","19148","Healthy Corner Store"
318,2722237.27352778,260921.57674273,135015,"Lisa & Charlie Market","Lisa & Charlie Market","6017 Torresdale Ave","19135","Healthy Corner Store"
319,2709666.54611886,253744.50514269,134103,"Lopez Grocery","Raquel Grocery","3539 Jasper St","19134","Healthy Corner Store"
320,2713042.78056360,262331.09635668,124055,"Los Amigos Market","Los Amigos Supermarket","1034 Foulkrod St","19124","Healthy Corner Store"
321,2694011.71864687,224692.80541717,148140,"Los Gallos","Los Gallos","951 Wolf St","19148","Healthy Corner Store"
322,2710824.13149374,253631.91179293,134074,"Luciano Grocery","Reyes Grocery","3643 Frankford Ave","19134","Healthy Corner Store"
323,2709048.28686493,256901.59871958,124059,"Luzerne Food Market","Luzerne Food Market","1126 E Luzerne St","19124","Healthy Corner Store"
324,2677455.42825620,264195.20669893,128005,"Lyceum Mart & Deli","Lyceum Mart & Deli","391 Lyceum","19128","Healthy Corner Store"
325,2698675.01999898,257210.92695088,140070,"M.P. Grocery","M.P. Grocery","911 W Butler St","19140","Healthy Corner Store"
326,2702688.36740760,264616.14770589,120050,"Magna Grocery","Magna Grocery","235 W Duncannon Ave","19120","Healthy Corner Store"
327,2706930.60372888,250653.24411191,134064,"MAO Grocery","MAO Grocery","3050 Frankford Ave","19134","Healthy Corner Store"
328,2678386.27251354,234292.50640524,143062,"Mariposa Inc","Mariposa Food Coop","4726 Baltimore Ave","19143","Healthy Corner Store"
329,2671434.58226557,239039.47477962,139045,"Market Grocery","Market Grocery","6033 Market St","19139","Healthy Corner Store"
330,2671014.30779567,237537.61268029,139008,"Martinez Food Market","61 & Locust Food Market","6100 Locust St","19139","Healthy Corner Store"
331,2696023.68627887,251866.99989789,132047,"Martinez Food Market Inc","Martinez Food Market","1328 West Somerset St","19132","Healthy Corner Store"
332,2692189.10679875,246422.74990856,121033,"Martinez Grocery","Martinez Grocery","1752 N 20th St","19121","Healthy Corner Store"
333,2688640.85203304,226799.73416672,145041,"Martinez Grocery","Martinez Grocery","2000 S Beechwood St","19145","Healthy Corner Store"
334,2704395.35441736,252385.52249168,134076,"Martinez Mini Market","Martinez Grocery","417 East Clearfield St","19134","Healthy Corner Store"
335,2678288.53908406,229974.04052506,143063,"MDA Gocery","MDA Grocery","5358 Woodland Ave","19143","Healthy Corner Store"
336,2689236.91657281,261922.35969825,144028,"Mezquita Grocery","Mezquita Grocery","5237 Laurens St","19144","Healthy Corner Store"
337,2691058.30111340,225083.32830617,145042,"Mi Pals Deli","Mi Pals Deli","2300 S 16th St","19145","Healthy Corner Store"
338,2702861.01201201,250808.68143621,134080,"Mi Tierra Food Market # 2","Mi Tierra Food Market #2","2750 A St","19134","Healthy Corner Store"
339,2709908.47399460,252804.47041024,134040,"Mi Tierra Food Market #1","Mi Tierra Food Mart #1","3501 Frankford Ave","19134","Healthy Corner Store"
340,2691110.36835572,227588.99186889,145027,"Mohamed Market","Moore Savings Deli (on s","1754 S Chadwick St","19145","Healthy Corner Store"
341,2704354.61437251,261944.33878177,120053,"Mon & Keo Grocery","Mon & Keo's Grocery","4745 A St","19120","Healthy Corner Store"
342,2675259.60914076,237970.52046119,139047,"Montesinos Super Market Inc.","Montesino's Supermarket","5351 Chestnut St","19139","Healthy Corner Store"
343,2705534.78911035,261408.01020742,120087,"Morevalue Inc","Mor Value American Famil","405 E Wyoming","19120","Healthy Corner Store"
344,2688731.53150414,251482.71332219,132049,"Mv Grocery Inc","Double A Grocery Store","2563 N 29Th St","19132","Healthy Corner Store"
345,2674186.40817511,231615.90745854,143066,"Narciso #2","Hernandez Grocery","5700 Hadfield St","19143","Healthy Corner Store"
346,2663651.80350874,245340.22677035,151027,"Natures Nutrition Centers","Nature's Nutrition Cente","7596 Haverford Ave","19151","Healthy Corner Store"
347,2694700.93587413,269468.80521876,138014,"Nedro Mini Market","Nedro Mini Marker","5900 N 21St St","19138","Healthy Corner Store"
348,2689813.49768625,254985.44525444,132050,"Neighbor's Supermarket","Neighbor's Supermarket","2724 W Allegheny Ave","19132","Healthy Corner Store"
349,2706928.65390835,261226.49385158,120057,"Nelson Mini Market","Nelson Mini Market","626 E Wyoming Ave","19120","Healthy Corner Store"
350,2701092.90081742,268840.75151972,120017,"New Life Grocery","New Life Grocery","5882 N 7th St","19120","Healthy Corner Store"
351,2701920.43588737,267330.83940339,120104,"New York Deli","New York Deli","5656 N 5th St","19120","Healthy Corner Store"
352,2690717.78916698,252949.34975265,132068,"Noah Grocery II","Santana Mini Mart","2863 N 25th St","19132","Healthy Corner Store"
353,2693910.29410053,249306.54057337,132051,"North Dauphin Grocery Inc","North Dauphin Grocery","1702 W Dauphin St","19132","Healthy Corner Store"
354,2695900.85264164,239602.24174115,123016,"North East Latin Grocery","Panaderia La Espiga","1011 Spring Garden St","19123","Healthy Corner Store"
355,2703571.90852576,251946.53305395,134083,"Nunez Grocery","Nunez Grocery","3000 B St","19134","Healthy Corner Store"
356,2692078.21121634,225834.50851486,145065,"Nuts About You","Nuts About You","2110 S Broad St.","19145","Healthy Corner Store"
357,2695444.58577347,276589.56305040,138045,"Ogontz Convenience Mart","Sneha Food Mart","7153 Ogontz Ave","19138","Healthy Corner Store"
358,2703898.16465883,250787.18835529,134086,"Paisano #3","Paisano Grocery","351 E Somerset St","19134","Healthy Corner Store"
359,2699700.48883157,239848.45591661,123031,"Palm Tree Market","Palm Tree Market","717 N 2nd St","19123","Healthy Corner Store"
360,2675100.71220005,230668.10615629,143068,"Papi's Grocery","The Papi's Store","5701 Warrington Ave","19143","Healthy Corner Store"
361,2690815.21905534,221377.74110750,145088,"Pastificio","Pastificio","1528 Packer Ave","19145","Healthy Corner Store"
362,2691081.10009453,245743.55160946,121002,"Paulino's Grocery","Paulino's Grocery Store","2201 W Oxford St","19121","Healthy Corner Store"
363,2721058.25957648,259735.30898629,138024,"Pena Grocery","Gutierrez Grocery Store","2139 E Chelten Ave","19138","Healthy Corner Store"
364,2699569.03115746,255904.69884500,140086,"Peralta Grocery","Peralta Grocery","621 W Venango St","19140","Healthy Corner Store"
365,2710490.56481668,253329.40062903,134006,"Philadelphia Mini Market","Andeliz Mini Market","3600 Frankford Ave","19134","Healthy Corner Store"
366,2696537.47903627,227531.23003697,148107,"Popreak Grocery","Popreak Grocery","1600 S 5th St","19148","Healthy Corner Store"
367,2730060.19826958,269474.24652955,136001,"Providence African Market","Providence African Marke","7918 Frankford Ave","19136","Healthy Corner Store"
368,2697831.19854355,231976.53884564,147041,"Queen Village Food Market","Queen Village Food Marke","339 Bainbridge St","19147","Healthy Corner Store"
369,2705765.35572151,251588.38978868,134099,"Quick Stop 3 Inc","Quick Stop #3","3001 Kensington Ave","19134","Healthy Corner Store"
370,2699960.11228179,242578.79078927,123021,"Quince Fine Foods","Quince Fine Foods","209 W Girard Ave","19123","Healthy Corner Store"
371,2725375.05171899,263464.41031526,135033,"R & R Mini Market","R & R Mini Market","4620 Unruh Ave","19135","Healthy Corner Store"
372,2703877.31544701,254215.17964481,134130,"Rafael Mini Mart","Rafael Mini Mart","3400 B St","19134","Healthy Corner Store"
373,2697758.00371554,243797.12386618,122026,"Ramon A. Gonzalez Enterprises I","Gonzalez Deli Enterprise","1400 N 7th St","19122","Healthy Corner Store"
374,2690001.09259222,227237.38632243,145059,"Ramos Food Market","Rodriguez Food Market","1825 S 19Th St","19145","Healthy Corner Store"
375,2687917.47194885,227352.93101178,145048,"Ranacaro Grocery Store","Ranacaro Grocery Store","1901 S Bonsall St","19145","Healthy Corner Store"
376,2694589.31692308,226438.33331697,148076,"Red's Hoagies & Groceries","Red's Hoagies","1900 S 9th St","19148","Healthy Corner Store"
377,2688871.94697738,229638.42644189,146045,"Reed Mini Market","Reed Mini Market","1341 S 22Nd St","19146","Healthy Corner Store"
378,2673810.57719491,243254.96108693,131013,"Reyes Grocery","Reyes Grocery","5601 Master St","19131","Healthy Corner Store"
379,2672586.58193774,243041.81227069,131031,"Reyes Grocery","J&M Mini Market","5845 Master St","19131","Healthy Corner Store"
380,2699447.21738635,258226.08431125,140061,"Rios Grocery Store","Rios Grocery","715 W Luzerne St","19140","Healthy Corner Store"
381,2686947.96518355,251941.37786987,132025,"Rodriguez Grocery","Rodriguez Grocery","2601 N 33rd St","19132","Healthy Corner Store"
382,2689372.80188395,255050.63069676,132027,"Rodriguez Grocery","Estevez Grocery","2839 W Allegheny Ave","19132","Healthy Corner Store"
383,2675782.57750428,239069.49727861,139061,"Rodriguez Grocery","Sanchez Grocery","101 N 53rd St","19139","Healthy Corner Store"
384,2696377.90268706,274335.90160084,126015,"Rodriguez Mini Market #4","Rodriguez Mini Market","6731 Ogontz Ave","19126","Healthy Corner Store"
385,2688529.32347848,246635.44229686,121056,"Rodriguez Supermarket","Rodriguez Supermarket","1700 N 28th St","19121","Healthy Corner Store"
386,2697989.09081679,273615.03391095,126008,"Rosario Grocery","Bamford Market","1545 Kinsdale St","19126","Healthy Corner Store"
387,2694761.67158369,230918.42991964,148099,"Rosie's Market","2001 S 10th St","1001 S 10th St","19148","Healthy Corner Store"
388,2685202.08439138,240944.48608371,104055,"Ruben Groceries","Freddy Grocery","3412 Fairmount Ave","19104","Healthy Corner Store"
389,2675030.63417602,228359.76521026,142052,"S&P Grocery Inc","S&P Grocery","6000 Kingsessing Ave","19142","Healthy Corner Store"
390,2695071.44185409,226668.21604373,148081,"Sagrado Corazon Grocery Store I","Sagrado Corazon Grocery","1815 S 8Th St","19148","Healthy Corner Store"
391,2678055.33318262,229748.46413723,143077,"Samiches Deli Inc","Samiches Deli","5411 Woodland Ave","19143","Healthy Corner Store"
392,2704427.56684027,262499.72672867,120073,"Sams Grocery Store","Sam's Grocery","4847 A St","19120","Healthy Corner Store"
393,2692842.43408413,225778.45712290,148105,"San Agus Mini Market","San Agus Mini Market","1247 Snyder Ave","19148","Healthy Corner Store"
394,2691651.60312067,228218.65574765,145051,"San Lucas Grocery Inc","San Lucas Grocery","1526 Tasker St","19145","Healthy Corner Store"
395,2692051.00300754,228163.62570184,145052,"Santos Grocery",,"1443 Tasker St","19145","Healthy Corner Store"
396,2674291.34520880,223788.69916950,142054,"Sekpeh Prosperity #1","Sekpeh Prosperity","6715 Elmwood Ave","19142","Healthy Corner Store"
397,2727639.35441846,268229.48520268,136015,"Shop-N-Go","Shop-N-Go","7370 Frankford Ave","19136","Healthy Corner Store"
398,2686090.05763601,226706.29996376,145056,"Snyder Supermarket Inc","Snyder Supermarket","2700 Snyder Ave","19145","Healthy Corner Store"
399,2702774.66901771,269740.78951126,120074,"Spencer Food Market Llc","Spencer Food Market","400 W Spencer St","19120","Healthy Corner Store"
400,2713133.50159296,249930.75479068,134119,"Stanley R Swiacki","Swiacki Meats","3623 Salmon St","19134","Healthy Corner Store"
401,2693040.54533818,229392.19101943,147046,"Sun Won Choi","Sun's Market","1311 Wharton St","19147","Healthy Corner Store"
402,2686778.86597719,255403.82907704,132110,"Sweetsies Sugar Free Sweets","Sweetsies Sugar Free Swe","3420 Allegheny Ave","19132","Healthy Corner Store"
403,2725255.94336465,263091.78703422,135025,"Tacony Food Mart","Tacony Food Market","6648 Torresdale Ave","19135","Healthy Corner Store"
404,2704705.36127993,251577.58548141,134124,"Tenare Grocery","Tenare Grocery","2963 D St","19134","Healthy Corner Store"
405,2724823.64334462,262781.32740936,135027,"The Queen Store","The Queen Store","6559 Torresdale Ave","19135","Healthy Corner Store"
406,2709381.43985290,253530.51693969,134110,"Toribio Pena Grocery","Toribio Pena Grocery","1901 E Tioga St","19134","Healthy Corner Store"
407,2690264.83760812,247519.84749736,121062,"Torres Grocery","Yaritza Mini Mart","1900 N Ringgold St","19121","Healthy Corner Store"
408,2697055.04407464,252840.60885856,133100,"Torres Grocery","Torres Grocery","1149 West Indiana Ave","19133","Healthy Corner Store"
409,2693907.66983960,250231.40515199,132075,"Torres Grocery Store","Torres Grocery","2466 N Colorado St","19132","Healthy Corner Store"
410,2701012.11684479,242399.44376895,122032,"Trax Foods","Trax Foods","1204 N Front St","19122","Healthy Corner Store"
411,2664331.89129405,244627.75623103,151034,"Twins Grocers","Twins Grocery","7540 Haverford Ave","19151","Healthy Corner Store"
412,2675486.20436399,232591.25574801,143087,"Two Brothers Food Market","Two Brothers Food Market","5400 Willows Ave","19143","Healthy Corner Store"
413,2676712.98221934,226133.40768000,142063,"Uceta Grocery","Valerio #2","6053 Elmwood Ave","19142","Healthy Corner Store"
414,2692634.74216379,223203.94750847,148094,"Venuti's Food Market","Venuti's Food Market","2655 S Camac St","19148","Healthy Corner Store"
415,2675057.90792658,242418.85049979,131003,"Vinas Food Market","8 Brothers Mini Mart","5401 W Girard Ave","19131","Healthy Corner Store"
416,2729039.01079926,268351.38929029,136017,"Vince's Deli","Vince's Deli","4244 Chippendale St","19136","Healthy Corner Store"
417,2701187.72585015,254290.76502537,140100,"Viola Grocery","Luz Grocery","230 West Wensley Street","19140","Healthy Corner Store"
418,2691142.52730864,262976.83214801,144021,"Wayne Associated","Wayne Associated","5101 Wayne Ave","19144","Healthy Corner Store"
419,2689817.76153143,263887.24108658,144051,"Wayne Supermarket Inc","Wayne Supermarket","5348 Wayne Ave","19144","Healthy Corner Store"
420,2697400.21004418,228778.35990814,147070,"Wharton Deli & Grocery","none","349 Wharton St","19147","Healthy Corner Store"
421,2694781.58291142,224585.24007600,148097,"Wolf Mini Market Inc","Wolf Mini Market","2300 S 8Th St","19148","Healthy Corner Store"
422,2690135.82386444,252034.98781893,132095,"Yainhdi Grocery","Yainhdi Grocery","2684 N 26th St","19132","Healthy Corner Store"
423,2688983.41332478,247005.00165556,121023,"Yaritza Grocery","Sanchez Market","1754 N 27th St","19121","Healthy Corner Store"
424,2692994.01871962,242697.23002629,130023,"Yellow Front Market","Yellow Front Market","1700 Ridge Ave","19130","Healthy Corner Store"
425,2689680.55272076,252040.38792051,132058,"Yoscar Mini Market","Yoscar Mini Market","2668 N 27th St","19132","Healthy Corner Store"
426,2698601.17866323,252070.44071906,133024,"Yudish Grocery","Yudish Grocery","716 W Cambria St","19133","Healthy Corner Store"
427,2674154.44282450,247357.66145370,131042,"Zabala Super Market","54th St Food Market","1823 N 54th St","19131","Healthy Corner Store"
428,2671794.22167585,221374.37472162,142102,"Zam Zam Market","Zam Zam Market","7333 Elmwood Ave","19142","Healthy Corner Store"
429,2702940.57997156,254326.61018669,134058,"Rafa Grocery","Rafa Grocery","116 E Ontario St","19134","Healthy Corner Store"
430,2705289.49062138,251223.27431930,134146,"CR Grocery","CR Grocery","2907 Kensington Ave","19134","Healthy Corner Store"
431,2705513.74182361,253418.27559137,134075,"Emilio Mini Market","Luciano #2 Grocery","600 E Westmoreland St","19134","Healthy Corner Store"
432,2699547.78159699,257663.87813653,140077,"Mendoza Grocery","Mendoza Grocery","3900 N 7Th St","19140","Healthy Corner Store"
433,2692489.62113786,269777.66371162,138048,"Woodlawn Deli","Woodlawn Deli","5637 Chew Ave","19138","Healthy Corner Store"
434,2678843.11584742,231255.24166483,143002,"51 Street Mini Market #1","Polanco Grocery Store","1360 S 51st St","19143","Healthy Corner Store"
435,2675722.81422987,223276.50407524,142067,"Pirela Food Market","Peralta Food Mart","6600 Guyer Ave","19142","Healthy Corner Store"
436,2677967.61559597,237045.86091088,139001,"49 Stop Supermarket","49 Stop Foodmarket","4847 Walnut St","19139","Healthy Corner Store"
437,2709705.21437874,249010.05019792,134081,"Misnik's Deli","Misnik's Deli","2530 E Allegheny Ave","19134","Healthy Corner Store"
438,2714291.69337302,276011.54835803,111008,"Glorious International Store","Glorious International S","7223 Rising Sun Ave","19111","Healthy Corner Store"
439,2694881.62093468,271923.16806179,138009,"Medary Deli Grocery","Edison Mini Market","2067 Medary Ave","19138","Healthy Corner Store"
440,2712949.54180432,266087.34982765,124081,"Shiv Food Market Llc","Shiv Food Market Llc","899 Brill St","19124","Healthy Corner Store"
441,2694993.77847952,239151.94311473,123014,"12th Street Food Mart","MVM Food Mart","453 N 12Th St","19123","Enhanced Healthy Corner Store"
442,2689453.61485453,247073.10124868,121004,"26th Food Market","Rodriguez's Supermarket","1800 N 26Th St","19121","Enhanced Healthy Corner Store"
443,2697577.04706625,240402.33557538,123020,"3MNS Inc.","Fair Mart Market","623 Fairmount Ave","19123","Enhanced Healthy Corner Store"
444,2694516.95961394,225089.43352981,148047,"9th and Jackson Grocery","9th & Jackson Grocery","853 Jackson St","19148","Enhanced Healthy Corner Store"
445,2692780.39196236,240981.19508584,130002,"A A A Food Market, Inc","A A A Food Market","1700 Wallace St","19130","Enhanced Healthy Corner Store"
446,2689868.53605470,263159.91269358,144005,"A and L Deli Market Inc.","B and P Deli Market","264 W Queen Ln","19144","Enhanced Healthy Corner Store"
447,2668661.78331843,243537.48781233,151029,"A M Food Market","R & M Deli And Soulfood","6572 Lansdowne Ave","19151","Enhanced Healthy Corner Store"
448,2694030.98104541,248115.76221137,121016,"Adan Grocery","Pablo Rodriguez","1643 W Diamond St","19121","Enhanced Healthy Corner Store"
449,2698561.46139802,261770.42069961,140126,"Ailyn Mini Market LLC","Franco Grocery","4600 N 11th St","19140","Enhanced Healthy Corner Store"
450,2701238.71008761,260269.00858564,140002,"Alba Grocery","Alba's Grocery","426 W Cayuga St","19140","Enhanced Healthy Corner Store"
451,2693042.80544364,240695.67973579,130003,"Alejo Grocery","Alejo Grocery","1634 Mount Vernon St","19130","Enhanced Healthy Corner Store"
452,2691809.24897572,242996.52574459,130004,"Almonte Grocery","Neighbor Food Mart","1945 Poplar St","19130","Enhanced Healthy Corner Store"
453,2688272.58610350,251553.92186189,132109,"Alvarez Grocery","Genesis Produce & Grocer","2565 N 30th St","19132","Enhanced Healthy Corner Store"
454,2675345.85588316,238524.22336806,139012,"Aman Food Market","Aman Food Market","5343 Market St","19139","Enhanced Healthy Corner Store"
455,2679408.31125543,232041.32204728,143010,"Ana Grocery","Ana Grocery","1262 S 49th St","19143","Enhanced Healthy Corner Store"
456,2675858.49169550,229899.86925751,143012,"Angela Mini Mart","Arredondo Mini Mart","5700 Chester Ave","19143","Enhanced Healthy Corner Store"
457,2674300.08536704,233851.73701102,143015,"Angelica Supermarket","Baltimore Supermarket","5445 Baltimore Avenue","19143","Enhanced Healthy Corner Store"
458,2701425.12018474,248271.49993278,133002,"Arturo Rojas Multi-Service I, I","Arturo Rojas Multi-Servi","147 W Dauphin St","19133","Enhanced Healthy Corner Store"
459,2695591.04304776,229970.85341798,147057,"Ascencios Grocery","Ascencio Grocery","1121 E Passyunk Ave","19147","Enhanced Healthy Corner Store"
460,2687532.39624295,250742.89024541,132064,"Associated Food Market","Associated Food Market","3120-28 W York St","19132","Enhanced Healthy Corner Store"
461,2675017.26794922,224494.78856999,142002,"B & J Supermarket","B & J Supermarket","6530 Elmwood Ave","19142","Enhanced Healthy Corner Store"
462,2699562.62074214,247342.34480104,122005,"Baez Mini Market Llc #1","Baez Mini Market","412 Diamond St","19122","Enhanced Healthy Corner Store"
463,2698387.23064758,251902.08300523,133084,"Balbi Food Market","Balbi Food Market","2865 N 8th St","19133","Enhanced Healthy Corner Store"
464,2702125.61676666,243951.01166315,125006,"Belgrade Delicatessen","Belgrade Delicatessen","1400 E Columbia Ave","19125","Enhanced Healthy Corner Store"
465,2710924.09592564,254125.46601322,134011,"Bills Deli","Bills Deli","2000 Castor Ave","19134","Enhanced Healthy Corner Store"
466,2701225.69640653,248298.72552206,133006,"Blanca Food Market","Blanca Food Market","162 W Dauphin St","19133","Enhanced Healthy Corner Store"
544,2674618.44450828,226421.64852966,142084,"Nina's Grocery & Variety","Nina's Grocery","6306 Woodland Ave","19142","Enhanced Healthy Corner Store"
545,2698767.16484172,242734.71173697,123007,"Nuevo Amanecer Deli Supermarket","Girard Supermarket","429 W Girard Ave","19123","Enhanced Healthy Corner Store"
546,2698625.39030883,249215.22029333,133022,"Nuñes Grocery","Nuñes Grocery","617 W York St","19133","Enhanced Healthy Corner Store"
547,2691011.58978657,229671.41375785,146036,"Olivares Food Market","Alpha Beta Grocery","1718 Wharton St","19146","Enhanced Healthy Corner Store"
548,2697567.55378008,228039.22681958,147065,"Pennsport Market","Pennsport Market","1425 E Moyamensing Ave","19147","Enhanced Healthy Corner Store"
549,2699251.14541373,247979.19359502,122023,"Peralta Food Market, Inc.","Peralta Food Market","501 W Susquehanna Ave","19122","Enhanced Healthy Corner Store"
550,2691459.48835696,254758.24326729,132057,"Peralta Grocery","Peralta Grocery","2400 W Allegheny Ave","19132","Enhanced Healthy Corner Store"
551,2707085.28311499,248870.24892005,134092,"Peralta Grocery","Peralta Grocery","2916 Tulip St","19134","Enhanced Healthy Corner Store"
552,2707527.55634111,248830.16289484,134093,"Peralta Julio Alberto","Peralta Grocery","2981 Memphis St","19134","Enhanced Healthy Corner Store"
553,2694922.85308094,228820.80386779,147040,"Philamex Grocery Store Inc","Philamex Grocery","1341 S 9th St","19147","Enhanced Healthy Corner Store"
554,2695114.65037094,249696.86762139,132080,"Philly's Choice Deli","Baez Grocery","1422 West York St.","19132","Enhanced Healthy Corner Store"
555,2700935.62286325,260186.17720934,140088,"Philly's Food Market","Philly Food Market","4353 N 5Th St","19140","Enhanced Healthy Corner Store"
556,2699274.11405219,250847.53394051,133058,"Philly's Mini Market","Galan","2701 N Fairhill St","19133","Enhanced Healthy Corner Store"
557,2676313.10444766,238805.69395542,139051,"PM Food Market Inc",,"61 N 52nd St","19139","Enhanced Healthy Corner Store"
558,2696163.75398585,241091.84507281,123011,"Polo Food Market","Brown Food Market","727 N 10th St","19123","Enhanced Healthy Corner Store"
559,2690253.50729199,246384.17685917,121048,"Popex Mini Market","Popex Mini Market","2401 Cecil B Moore Ave","19121","Enhanced Healthy Corner Store"
560,2721041.03613311,259759.64325876,138051,"Pretty Mary's 24/7 Neighborhood","Pretty Mary's 24/7 Neigh","2126 E Chelten Ave","19138","Enhanced Healthy Corner Store"
561,2697956.20275190,230433.85382845,147085,"Queen Village Mini Market & Del","Queen Village Mini Marke","246 Christian St","19147","Enhanced Healthy Corner Store"
562,2702940.57997156,254326.61018669,134058,"Rafa Grocery","Rafa Grocery","116 E Ontario St","19134","Enhanced Healthy Corner Store"
563,2701729.95350000,249342.56491021,133064,"Ramos Food Market","Baez Grocery","145 W Cumberland","19133","Enhanced Healthy Corner Store"
564,2705086.45856379,250550.18103074,134107,"Reyes Grocery","Reyes Grocery","1854 Hart Ln","19134","Enhanced Healthy Corner Store"
565,2706303.84182113,262979.56394240,120065,"Ricardo'S Mini Market","Ricardo's Mini Mart","5000 Gransback St","19120","Enhanced Healthy Corner Store"
566,2675707.23945767,234193.17797033,143101,"Rift Valley Grocery Store","Natural Coffee Landmark","715 S 52nd St","19143","Enhanced Healthy Corner Store"
567,2689674.30017251,244422.37977802,121057,"Rodriguez Grocery","Rodriguez Grocery","2438 W Thompson St","19121","Enhanced Healthy Corner Store"
568,2687871.22641986,250699.09100272,132065,"Rogelio Mini Market","Yello J&R Supermarket","3034-36 W York Street","19132","Enhanced Healthy Corner Store"
569,2698727.35469351,242740.05510630,123018,"Rosa's Pretzel Bakery And Deli","Rosa's Bakery and Deli","441 W Girard Ave","19123","Enhanced Healthy Corner Store"
570,2694214.14896628,241223.94406206,130013,"Sal's Produce Plus Inc","Sal's Produce Plus","676 N Broad St","19130","Enhanced Healthy Corner Store"
571,2675147.25162612,229893.04744316,143070,"Samana Food Market","Samana Food Market","1801 S 58th St","19143","Enhanced Healthy Corner Store"
572,2702373.71683516,251289.39468333,133094,"Sam's Supermarket","Sam's Supermarket","2852 N Front St","19133","Enhanced Healthy Corner Store"
573,2699671.34223864,249070.99145335,133014,"San Miguel Deli","San Miguel Deli","425 W York St","19133","Enhanced Healthy Corner Store"
574,2694893.14062439,225398.04899583,148083,"San Miguel Mini Market Inc","La Esperanza","2108 S 8Th St","19148","Enhanced Healthy Corner Store"
575,2689986.76110794,246999.62515817,121009,"SH & FY Inc.","Barney's Market","2449 Ridge Avenue","19121","Enhanced Healthy Corner Store"
576,2678660.46591443,230333.94915481,143083,"Shop & Go Convenience Store","Stop One Supermarket","5227 Woodland Ave","19143","Enhanced Healthy Corner Store"
577,2673475.02519271,234666.10991207,143081,"Shop & Save Dollar Plus","Shop & Save Dollar Plus","5600 Catharine St","19143","Enhanced Healthy Corner Store"
578,2699251.89722234,274803.78092018,126009,"Shopexpress","Shop Express","6900 Old York Rd","19126","Enhanced Healthy Corner Store"
579,2676396.41296336,230421.08687190,143125,"Sister International Food Marke","Sister International Foo","5533 Chester Ave","19143","Enhanced Healthy Corner Store"
580,2709974.40544208,257122.02637910,124094,"Sosa Food Market","Sosa Food Market","4062 L St","19124","Enhanced Healthy Corner Store"
581,2717727.41821460,264702.79110926,135030,"Speedy's Mart","Speedy Food Mart","5934 Bustleton Ave.","19149","Enhanced Healthy Corner Store"
582,2702132.04164518,266973.74810181,120107,"Starlite Grocery","Starlite Grocery","425 W Olney St","19120","Enhanced Healthy Corner Store"
583,2709808.91058076,270203.09443735,120110,"Stop N Save Deli","Family Food","5921 Rising Sun Ave","19120","Enhanced Healthy Corner Store"
584,2729323.00985315,267956.47040385,136016,"Stop N Shop","Stop N Shop","4345 Chippendale St","19136","Enhanced Healthy Corner Store"
585,2676049.19508862,236799.79673355,139068,"Syed Brothers Supermarket","Syed Brothers","250 S 52nd St","19139","Enhanced Healthy Corner Store"
586,2709531.68916501,257980.56231433,124044,"T & S Express Market","JP Grocery","1200 E Hunting Park Ave","19124","Enhanced Healthy Corner Store"
587,2701005.54923329,245333.78671598,122028,"Tamyra Family Market","Tamyra Family Market","1770 N Mascher St","19122","Enhanced Healthy Corner Store"
588,2715535.33383338,276818.42687799,111016,"Tanos Deli","Tano's Corner Deli","7401 Bingham St","19111","Enhanced Healthy Corner Store"
589,2692179.33584713,257167.75717552,132107,"Tasty Kake Outlet","Tasty Kake Outlet","2236 Hunting Park Ave","19140","Enhanced Healthy Corner Store"
590,2690815.30309835,254844.75253435,132070,"Tavares Grocery","Rodriguez Grocery","2514 W Allegheny Ave","19132","Enhanced Healthy Corner Store"
591,2705640.95045865,261395.40724055,120077,"Thang Len Market","Community  Market","414 E Wyoming Ave","19120","Enhanced Healthy Corner Store"
592,2701367.34646336,263314.93048882,120079,"The New Family Restaurant","New Family Restaurant","4936 N 5th St","19120","Enhanced Healthy Corner Store"
593,2691098.47750254,247394.35007754,121054,"The Right Choice","The Right Choice","2221 W Berks St","19121","Enhanced Healthy Corner Store"
594,2689602.74687987,244905.06800684,121061,"Three Sisters Grocery","3 Sisters Grocery","2500 W Master St","19121","Enhanced Healthy Corner Store"
595,2695346.28753128,239618.18648185,123033,"Trebol Supermarket","Trebol Supermarket","1137 Spring Garden St","19123","Enhanced Healthy Corner Store"
596,2696494.25255135,253842.86476560,132056,"Tres Torres","Peralta Grocery","1327 W Wishart St","19132","Enhanced Healthy Corner Store"
597,2700463.57879458,263229.63148744,120081,"United Mini Market","United Mini Market","659 W Rockland St","19120","Enhanced Healthy Corner Store"
598,2678578.10320339,236087.02343272,139010,"University Dollar Plus","University Dollar Plus","4734-40 Spruce Street","19139","Enhanced Healthy Corner Store"
599,2691450.11484505,241160.26410657,130016,"Wallace Market","Wallace Market","2000 Wallace St","19130","Enhanced Healthy Corner Store"
600,2704788.71296192,252223.85919907,134071,"Wensle Mini Mart","Wensle Mini Mart","3061 D St","19134","Enhanced Healthy Corner Store"
601,2691689.78705732,253383.38571557,132019,"Weso Mini Market","Cruz Mini Mart","2964 N 23rd St","19132","Enhanced Healthy Corner Store"
602,2670653.49473584,238968.52029814,139011,"West Philadelphia Produce","West Philadelphia Produc","18 S 62nd St","19139","Enhanced Healthy Corner Store"
603,2693009.79135303,224825.22206866,148098,"Wolf Variety Store","Wolf Variety Store","2301 S 12th St","19148","Enhanced Healthy Corner Store"
604,2691641.05314078,251884.47290202,132077,"Yadira Grocery","Yadira Grocery","2227 W Lehigh Ave","19132","Enhanced Healthy Corner Store"
605,2690372.67329554,253776.19516454,132078,"Young's Mart","Youngs Market","3001 N 26Th St","19132","Enhanced Healthy Corner Store"
606,2730117.98470295,266583.11946609,136018,"Z & Y Food Market","Bythrow Deli","7601 Torresdale Ave","19136","Enhanced Healthy Corner Store"
607,2698034.38255596,244785.58543403,122006,"Zenarda Grocery","Belmis Mini Market","643 W Oxford Avenue","19122","Enhanced Healthy Corner Store"
608,2703890.36909109,262508.17151501,120099,"Tienda Mex",,"4831 Rising Sun Ave.","19120","Enhanced Healthy Corner Store"
609,2699883.45026997,262771.57211243,120060,"P & R Grocery",,"4800 N 8th St","19120","Enhanced Healthy Corner Store"
610,2707570.13745764,260529.34547669,120025,"El Mayimbe Mini Market",,"4598 G St","19120","Enhanced Healthy Corner Store"
611,2702138.97376743,266972.80895496,120078,"Thank God Grocery",,"420 W Olney Ave","19120","Enhanced Healthy Corner Store"
612,2692891.48860081,255421.27502310,140105,"3 J Food Market",,"3324 N 21st St","19140","Enhanced Healthy Corner Store"
613,2688655.31842113,250936.03727668,132002,"7 Days Food Market",,"2462 N 29Th St","19132","Enhanced Healthy Corner Store"
614,2702026.26635060,262182.54187739,120011,"Brito Grocery",,"4729 N 3rd St","19120","Enhanced Healthy Corner Store"
615,2692602.69496504,269693.49383273,138004,"Cawley's Market",,"5616 Chew Ave","19138","Enhanced Healthy Corner Store"
616,2679679.28350423,260339.54641109,128007,"Commissary Food Market",,"5255 Ridge Ave","19128","Enhanced Healthy Corner Store"
617,2700521.55914206,251250.01671616,133088,"Coral 1, 2, 3 y Mas",,"301 West Somerset St.","19133","Enhanced Healthy Corner Store"
618,2693026.73915355,249229.94034719,132081,"Dauphin St Grocery & Deli",,"2267 North 19th St.","19132","Enhanced Healthy Corner Store"
619,2693549.20471302,255064.62926354,140042,"Denny's Grocery",,"1943 W Westmoreland St","19140","Enhanced Healthy Corner Store"
620,2691994.09145911,252234.60671323,132028,"G and F Grocery",,"2768 N 22nd St","19132","Enhanced Healthy Corner Store"
621,2695290.60411974,270766.29596349,138016,"J & J Grocery",,"2001 W Spencer St","19138","Enhanced Healthy Corner Store"
622,2695233.75032890,255402.04609660,140057,"Corner Food Market",,"3401 N 16th St","19140","Enhanced Healthy Corner Store"
623,2688982.92540363,252247.65251875,132067,"Lehigh Ave Supermarket",,"2837 West Lehigh Avenue","19132","Enhanced Healthy Corner Store"
624,2679647.81344149,262060.58411099,128002,"M & M Fod Market",,"458 Markle St","19128","Enhanced Healthy Corner Store"
625,2699769.36395217,251700.84307404,133050,"Maria's Grocery",,"2863 N 5Th St","19133","Enhanced Healthy Corner Store"
626,2699473.77199953,273624.82301266,126016,"Mema's Treats",,"1260 Oak Lane","19126","Enhanced Healthy Corner Store"
627,2692779.31303125,269562.06577798,138023,"Neighborhood Deli Grocery",,"5600 Chew Ave","19138","Enhanced Healthy Corner Store"
628,2695200.41573337,260121.23447383,140083,"Papi's Mini Market",,"4201 Germantown Ave","19140","Enhanced Healthy Corner Store"
629,2678173.33915569,262593.42128527,128003,"Pat's Place",,"4200 Manayunk Ave","19128","Enhanced Healthy Corner Store"
630,2699135.85141684,253700.53673579,133039,"Perez Grocery #2",,"640 W Allegheny Ave","19133","Enhanced Healthy Corner Store"
631,2708984.53640643,269443.94330634,120064,"R & M Food Market",,"5754 Rising Sun Ave","19120","Enhanced Healthy Corner Store"
632,2694846.18002791,255998.91878138,140091,"Ramirez Grocery",,"1701 W Tioga St","19140","Enhanced Healthy Corner Store"
633,2703178.14760078,261212.62732031,140127,"Rodriguez Variety",,"4600 Rising Sun Ave","19140","Enhanced Healthy Corner Store"
634,2699303.57561638,258557.21966846,140047,"Roselix Grocery",,"4056 N 8Th St","19140","Enhanced Healthy Corner Store"
635,2702556.57362601,252647.79088100,133080,"Saury Inc.",,"3101 N Front St","19133","Enhanced Healthy Corner Store"
636,2694463.38631509,274308.20947103,138029,"Super Chicken Grocery",,"6901 Rodney St","19138","Enhanced Healthy Corner Store"
637,2685884.97861960,258435.58384185,129003,"Tilden Food Market",,"3539 Vaux St","19129","Enhanced Healthy Corner Store"
638,2697068.86541879,276810.38454887,126010,"TNT Market",,"1847 72nd Ave","19126","Enhanced Healthy Corner Store"
639,2687406.77726644,255317.89691676,132029,"Valentina Grocery",,"3300 W Allegheny Ave","19132","Enhanced Healthy Corner Store"
640,2694928.89025621,222432.36129008,148141,"Wholly Smokes Cigarette Outlet",,"2747 S 7th St","19148","Enhanced Healthy Corner Store"
